{
  "norad_id": 66653,
  "name": "2025-274D",
  "history": [
    {
      "epoch": "2026-03-28T18:22:47.253216Z",
      "apogee_km": 597.8446200770859,
      "perigee_km": 582.4877341692782,
      "latitude_deg": 8.080098370721077e-05,
      "longitude_deg": -83.74506646236718,
      "height_km": 594.2119478667004,
      "semi_major_axis_km": 6968.303177123182,
      "eccentricity": 0.00110191,
      "inclination_deg": 97.7452,
      "raan_deg": 18.1334,
      "arg_perigee_deg": 262.5575,
      "mean_anomaly_deg": 97.4393,
      "mean_motion_rev_day": 14.92492665
    }
  ]
}